[{"OBJECT_NAME":"STARLINK-36362","OBJECT_ID":"2026-005W","EPOCH":"2026-03-09T22:00:01.999584","MEAN_MOTION":15.28371267,"ECCENTRICITY":0.00025187,"INCLINATION":42.9994,"RA_OF_ASC_NODE":236.7845,"ARG_OF_PERICENTER":281.2971,"MEAN_ANOMALY":317.6523,"EPHEMERIS_TYPE":0,"CLASSIFICATION_TYPE":"U","NORAD_CAT_ID":67424,"ELEMENT_SET_NO":999,"REV_AT_EPOCH":590,"BSTAR":0.0027312751,"MEAN_MOTION_DOT":0.0007755,"MEAN_MOTION_DDOT":0},{"OBJECT_NAME":"PEGASUS DEB","OBJECT_ID":"1994-029AG","EPOCH":"2026-03-09T11:16:42.963744","MEAN_MOTION":15.37636263,"ECCENTRICITY":0.0031206,"INCLINATION":82.0362,"RA_OF_ASC_NODE":86.2933,"ARG_OF_PERICENTER":155.6019,"MEAN_ANOMALY":204.671,"EPHEMERIS_TYPE":0,"CLASSIFICATION_TYPE":"U","NORAD_CAT_ID":23986,"ELEMENT_SET_NO":999,"REV_AT_EPOCH":61542,"BSTAR":0.00061808813,"MEAN_MOTION_DOT":0.00023279,"MEAN_MOTION_DDOT":0}]
